GOES 18                 
1 51850U 22021A   25106.72136409  .00000107  00000+0  00000+0 0  9998
2 51850   0.0025 306.7019 0000405 145.4288 235.6703  1.00272537  2314
NOAA 21 (JPSS-2)        
1 54234U 22150A   25106.88388788  .00000389  00000+0  20506-3 0  9995
2 54234  98.7238  46.5449 0001708  18.6212 341.5026 14.19579155126068
METEOSAT-12 (MTG-I1)    
1 54743U 22170C   25106.89130477  .00000003  00000+0  00000+0 0  9999
2 54743   0.6225  32.6177 0001236 327.1981 166.0916  1.00268270  8709
TIANMU-1 03             
1 55973U 23039A   25106.90275753  .00047147  00000+0  14362-2 0  9998
2 55973  97.4960 264.5776 0004674 177.2872 182.8396 15.33820692115225
TIANMU-1 04             
1 55974U 23039B   25106.92322200  .00046786  00000+0  14156-2 0  9990
2 55974  97.4887 263.9214 0005616 175.5023 184.6271 15.34032599115224
TIANMU-1 05             
1 55975U 23039C   25106.93685634  .00045154  00000+0  13770-2 0  9994
2 55975  97.4934 264.3838 0004029 192.2059 167.9087 15.33798885115211
TIANMU-1 06             
1 55976U 23039D   25106.93666150  .00046759  00000+0  14112-2 0  9990
2 55976  97.4947 264.6724 0004462 191.0525 169.0620 15.34118335115223
METEOR-M2 3             
1 57166U 23091A   25106.95030674  .00000152  00000+0  85242-4 0  9990
2 57166  98.6663 164.2106 0003423 345.6086  14.4994 14.23993179 93853
TIANMU-1 07             
1 57399U 23101A   25106.92422452  .00026316  00000+0  10766-2 0  9993
2 57399  97.3157 162.2550 0004377 181.4069 178.7157 15.24300646 96583
TIANMU-1 08             
1 57400U 23101B   25106.82494883  .00025872  00000+0  10582-2 0  9994
2 57400  97.3147 161.9934 0006190 193.9805 166.1263 15.24303070 96569
TIANMU-1 09             
1 57401U 23101C   25106.93926729  .00026799  00000+0  10937-2 0  9999
2 57401  97.3102 161.7676 0006072 189.7707 170.3413 15.24370860 96582
TIANMU-1 10             
1 57402U 23101D   25106.90492939  .00027150  14876-6  11091-2 0  9995
2 57402  97.3182 162.3336 0008033 192.8114 167.2921 15.24394835 96573
FENGYUN 3F              
1 57490U 23111A   25106.93855131  .00000354  00000+0  18675-3 0  9993
2 57490  98.7295 178.7240 0000457  62.8729 297.2494 14.20029506 88378
ARKTIKA-M 2             
1 58584U 23198A   25106.55824160  .00000167  00000+0  00000+0 0  9990
2 58584  63.2283 201.1361 6881170 269.0511  18.3329  2.00609770  9764
