[
  {
    "OBJECT_NAME": "GOES 18",
    "OBJECT_ID": "2022-021A",
    "EPOCH": "2025-04-16T17:18:45.857376",
    "MEAN_MOTION": 1.00272537,
    "ECCENTRICITY": 4.05e-5,
    "INCLINATION": 0.0025,
    "RA_OF_ASC_NODE": 306.7019,
    "ARG_OF_PERICENTER": 145.4288,
    "MEAN_ANOMALY": 235.6703,
    "EPHEMERIS_TYPE": 0,
    "CLASSIFICATION_TYPE": "U",
    "NORAD_CAT_ID": 51850,
    "ELEMENT_SET_NO": 999,
    "REV_AT_EPOCH": 231,
    "BSTAR": 0,
    "MEAN_MOTION_DOT": 1.07e-6,
    "MEAN_MOTION_DDOT": 0
  },
  {
    "OBJECT_NAME": "NOAA 21 (JPSS-2)",
    "OBJECT_ID": "2022-150A",
    "EPOCH": "2025-04-16T21:12:47.912832",
    "MEAN_MOTION": 14.19579155,
    "ECCENTRICITY": 0.0001708,
    "INCLINATION": 98.7238,
    "RA_OF_ASC_NODE": 46.5449,
    "ARG_OF_PERICENTER": 18.6212,
    "MEAN_ANOMALY": 341.5026,
    "EPHEMERIS_TYPE": 0,
    "CLASSIFICATION_TYPE": "U",
    "NORAD_CAT_ID": 54234,
    "ELEMENT_SET_NO": 999,
    "REV_AT_EPOCH": 12606,
    "BSTAR": 0.00020506,
    "MEAN_MOTION_DOT": 3.89e-6,
    "MEAN_MOTION_DDOT": 0
  },
  {
    "OBJECT_NAME": "METEOSAT-12 (MTG-I1)",
    "OBJECT_ID": "2022-170C",
    "EPOCH": "2025-04-16T21:23:28.732128",
    "MEAN_MOTION": 1.0026827,
    "ECCENTRICITY": 0.0001236,
    "INCLINATION": 0.6225,
    "RA_OF_ASC_NODE": 32.6177,
    "ARG_OF_PERICENTER": 327.1981,
    "MEAN_ANOMALY": 166.0916,
    "EPHEMERIS_TYPE": 0,
    "CLASSIFICATION_TYPE": "U",
    "NORAD_CAT_ID": 54743,
    "ELEMENT_SET_NO": 999,
    "REV_AT_EPOCH": 870,
    "BSTAR": 0,
    "MEAN_MOTION_DOT": 3.0e-8,
    "MEAN_MOTION_DDOT": 0
  },
  {
    "OBJECT_NAME": "TIANMU-1 03",
    "OBJECT_ID": "2023-039A",
    "EPOCH": "2025-04-16T21:39:58.250592",
    "MEAN_MOTION": 15.33820692,
    "ECCENTRICITY": 0.0004674,
    "INCLINATION": 97.496,
    "RA_OF_ASC_NODE": 264.5776,
    "ARG_OF_PERICENTER": 177.2872,
    "MEAN_ANOMALY": 182.8396,
    "EPHEMERIS_TYPE": 0,
    "CLASSIFICATION_TYPE": "U",
    "NORAD_CAT_ID": 55973,
    "ELEMENT_SET_NO": 999,
    "REV_AT_EPOCH": 11522,
    "BSTAR": 0.0014362,
    "MEAN_MOTION_DOT": 0.00047147,
    "MEAN_MOTION_DDOT": 0
  },
  {
    "OBJECT_NAME": "TIANMU-1 04",
    "OBJECT_ID": "2023-039B",
    "EPOCH": "2025-04-16T22:09:26.380800",
    "MEAN_MOTION": 15.34032599,
    "ECCENTRICITY": 0.0005616,
    "INCLINATION": 97.4887,
    "RA_OF_ASC_NODE": 263.9214,
    "ARG_OF_PERICENTER": 175.5023,
    "MEAN_ANOMALY": 184.6271,
    "EPHEMERIS_TYPE": 0,
    "CLASSIFICATION_TYPE": "U",
    "NORAD_CAT_ID": 55974,
    "ELEMENT_SET_NO": 999,
    "REV_AT_EPOCH": 11522,
    "BSTAR": 0.0014156,
    "MEAN_MOTION_DOT": 0.00046786,
    "MEAN_MOTION_DDOT": 0
  },
  {
    "OBJECT_NAME": "TIANMU-1 05",
    "OBJECT_ID": "2023-039C",
    "EPOCH": "2025-04-16T22:29:04.387776",
    "MEAN_MOTION": 15.33798885,
    "ECCENTRICITY": 0.0004029,
    "INCLINATION": 97.4934,
    "RA_OF_ASC_NODE": 264.3838,
    "ARG_OF_PERICENTER": 192.2059,
    "MEAN_ANOMALY": 167.9087,
    "EPHEMERIS_TYPE": 0,
    "CLASSIFICATION_TYPE": "U",
    "NORAD_CAT_ID": 55975,
    "ELEMENT_SET_NO": 999,
    "REV_AT_EPOCH": 11521,
    "BSTAR": 0.001377,
    "MEAN_MOTION_DOT": 0.00045154,
    "MEAN_MOTION_DDOT": 0
  },
  {
    "OBJECT_NAME": "TIANMU-1 06",
    "OBJECT_ID": "2023-039D",
    "EPOCH": "2025-04-16T22:28:47.553600",
    "MEAN_MOTION": 15.34118335,
    "ECCENTRICITY": 0.0004462,
    "INCLINATION": 97.4947,
    "RA_OF_ASC_NODE": 264.6724,
    "ARG_OF_PERICENTER": 191.0525,
    "MEAN_ANOMALY": 169.062,
    "EPHEMERIS_TYPE": 0,
    "CLASSIFICATION_TYPE": "U",
    "NORAD_CAT_ID": 55976,
    "ELEMENT_SET_NO": 999,
    "REV_AT_EPOCH": 11522,
    "BSTAR": 0.0014112,
    "MEAN_MOTION_DOT": 0.00046759,
    "MEAN_MOTION_DDOT": 0
  },
  {
    "OBJECT_NAME": "METEOR-M2 3",
    "OBJECT_ID": "2023-091A",
    "EPOCH": "2025-04-16T22:48:26.502336",
    "MEAN_MOTION": 14.23993179,
    "ECCENTRICITY": 0.0003423,
    "INCLINATION": 98.6663,
    "RA_OF_ASC_NODE": 164.2106,
    "ARG_OF_PERICENTER": 345.6086,
    "MEAN_ANOMALY": 14.4994,
    "EPHEMERIS_TYPE": 0,
    "CLASSIFICATION_TYPE": "U",
    "NORAD_CAT_ID": 57166,
    "ELEMENT_SET_NO": 999,
    "REV_AT_EPOCH": 9385,
    "BSTAR": 8.5242e-5,
    "MEAN_MOTION_DOT": 1.52e-6,
    "MEAN_MOTION_DDOT": 0
  },
  {
    "OBJECT_NAME": "TIANMU-1 07",
    "OBJECT_ID": "2023-101A",
    "EPOCH": "2025-04-16T22:10:52.998528",
    "MEAN_MOTION": 15.24300646,
    "ECCENTRICITY": 0.0004377,
    "INCLINATION": 97.3157,
    "RA_OF_ASC_NODE": 162.255,
    "ARG_OF_PERICENTER": 181.4069,
    "MEAN_ANOMALY": 178.7157,
    "EPHEMERIS_TYPE": 0,
    "CLASSIFICATION_TYPE": "U",
    "NORAD_CAT_ID": 57399,
    "ELEMENT_SET_NO": 999,
    "REV_AT_EPOCH": 9658,
    "BSTAR": 0.0010766,
    "MEAN_MOTION_DOT": 0.00026316,
    "MEAN_MOTION_DDOT": 0
  },
  {
    "OBJECT_NAME": "TIANMU-1 08",
    "OBJECT_ID": "2023-101B",
    "EPOCH": "2025-04-16T19:47:55.578912",
    "MEAN_MOTION": 15.2430307,
    "ECCENTRICITY": 0.000619,
    "INCLINATION": 97.3147,
    "RA_OF_ASC_NODE": 161.9934,
    "ARG_OF_PERICENTER": 193.9805,
    "MEAN_ANOMALY": 166.1263,
    "EPHEMERIS_TYPE": 0,
    "CLASSIFICATION_TYPE": "U",
    "NORAD_CAT_ID": 57400,
    "ELEMENT_SET_NO": 999,
    "REV_AT_EPOCH": 9656,
    "BSTAR": 0.0010582,
    "MEAN_MOTION_DOT": 0.00025872,
    "MEAN_MOTION_DDOT": 0
  },
  {
    "OBJECT_NAME": "TIANMU-1 09",
    "OBJECT_ID": "2023-101C",
    "EPOCH": "2025-04-16T22:32:32.693856",
    "MEAN_MOTION": 15.2437086,
    "ECCENTRICITY": 0.0006072,
    "INCLINATION": 97.3102,
    "RA_OF_ASC_NODE": 161.7676,
    "ARG_OF_PERICENTER": 189.7707,
    "MEAN_ANOMALY": 170.3413,
    "EPHEMERIS_TYPE": 0,
    "CLASSIFICATION_TYPE": "U",
    "NORAD_CAT_ID": 57401,
    "ELEMENT_SET_NO": 999,
    "REV_AT_EPOCH": 9658,
    "BSTAR": 0.0010937,
    "MEAN_MOTION_DOT": 0.00026799,
    "MEAN_MOTION_DDOT": 0
  },
  {
    "OBJECT_NAME": "TIANMU-1 10",
    "OBJECT_ID": "2023-101D",
    "EPOCH": "2025-04-16T21:43:05.899296",
    "MEAN_MOTION": 15.24394835,
    "ECCENTRICITY": 0.0008033,
    "INCLINATION": 97.3182,
    "RA_OF_ASC_NODE": 162.3336,
    "ARG_OF_PERICENTER": 192.8114,
    "MEAN_ANOMALY": 167.2921,
    "EPHEMERIS_TYPE": 0,
    "CLASSIFICATION_TYPE": "U",
    "NORAD_CAT_ID": 57402,
    "ELEMENT_SET_NO": 999,
    "REV_AT_EPOCH": 9657,
    "BSTAR": 0.0011091,
    "MEAN_MOTION_DOT": 0.0002715,
    "MEAN_MOTION_DDOT": 1.4876e-7
  },
  {
    "OBJECT_NAME": "FENGYUN 3F",
    "OBJECT_ID": "2023-111A",
    "EPOCH": "2025-04-16T22:31:30.833184",
    "MEAN_MOTION": 14.20029506,
    "ECCENTRICITY": 4.57e-5,
    "INCLINATION": 98.7295,
    "RA_OF_ASC_NODE": 178.724,
    "ARG_OF_PERICENTER": 62.8729,
    "MEAN_ANOMALY": 297.2494,
    "EPHEMERIS_TYPE": 0,
    "CLASSIFICATION_TYPE": "U",
    "NORAD_CAT_ID": 57490,
    "ELEMENT_SET_NO": 999,
    "REV_AT_EPOCH": 8837,
    "BSTAR": 0.00018675,
    "MEAN_MOTION_DOT": 3.54e-6,
    "MEAN_MOTION_DDOT": 0
  },
  {
    "OBJECT_NAME": "ARKTIKA-M 2",
    "OBJECT_ID": "2023-198A",
    "EPOCH": "2025-04-16T13:23:52.074240",
    "MEAN_MOTION": 2.0060977,
    "ECCENTRICITY": 0.688117,
    "INCLINATION": 63.2283,
    "RA_OF_ASC_NODE": 201.1361,
    "ARG_OF_PERICENTER": 269.0511,
    "MEAN_ANOMALY": 18.3329,
    "EPHEMERIS_TYPE": 0,
    "CLASSIFICATION_TYPE": "U",
    "NORAD_CAT_ID": 58584,
    "ELEMENT_SET_NO": 999,
    "REV_AT_EPOCH": 976,
    "BSTAR": 0,
    "MEAN_MOTION_DOT": 1.67e-6,
    "MEAN_MOTION_DDOT": 0
  }
]
